GSAT0212 (GALILEO 16)   
1 41860U 16069B   26188.12942102 -.00000003  00000+0  00000+0 0  9999
2 41860  55.5076 100.5296 0004380   9.6218 350.4046  1.70473650 59990
GSAT0213 (GALILEO 17)   
1 41861U 16069C   26187.32341799  .00000000  00000+0  00000+0 0  9992
2 41861  55.5092 100.5598 0004628 315.4701  44.5123  1.70474232 59842
GSAT0214 (GALILEO 18)   
1 41862U 16069D   26187.46967801 -.00000001  00000+0  00000+0 0  9998
2 41862  55.5080 100.5485 0003807 326.3091  33.6861  1.70473830 59971
GSAT0215 (GALILEO 19)   
1 43055U 17079A   26190.30564403  .00000088  00000+0  00000+0 0  9998
2 43055  55.0687 220.8977 0003623 268.5833  91.4517  1.70474298 53360
GSAT0216 (GALILEO 20)   
1 43056U 17079B   26191.18336701  .00000090  00000+0  00000+0 0  9997
2 43056  55.0690 220.8736 0004821 276.9654  83.0589  1.70474478 53392
GSAT0217 (GALILEO 21)   
1 43057U 17079C   26188.47125062  .00000081  00000+0  00000+0 0  9992
2 43057  55.0679 220.9459 0003909 293.3909  66.6394  1.70474257 53335
GSAT0218 (GALILEO 22)   
1 43058U 17079D   26191.03766544  .00000090  00000+0  00000+0 0  9995
2 43058  55.0673 220.8729 0005324 274.1893  85.8286  1.70474412 53405
GSAT0221 (GALILEO 25)   
1 43564U 18060A   26190.94173446 -.00000079  00000+0  00000+0 0  9998
2 43564  57.1621 341.1668 0002608 288.2741  71.6944  1.70476012 49555
GSAT0222 (GALILEO 26)   
1 43565U 18060B   26189.98825864 -.00000075  00000+0  00000+0 0  9995
2 43565  57.1651 341.1962 0002626 236.6696 123.3045  1.70475769 49580
GSAT0219 (GALILEO 23)   
1 43566U 18060C   26190.20911964 -.00000076  00000+0  00000+0 0  9991
2 43566  57.1645 341.1918 0001791 303.0651  56.9164  1.70476041 49562
GSAT0220 (GALILEO 24)   
1 43567U 18060D   26191.01669920 -.00000079  00000+0  00000+0 0  9997
2 43567  57.1639 341.1705 0002110 293.5002  66.4744  1.70475701 49561
GSAT0223 (GALILEO 27)   
1 49809U 21116A   26190.87460481 -.00000078  00000+0  00000+0 0  9991
2 49809  57.1531 341.0636 0002356 194.9735 168.6501  1.70475927 28572
GSAT0224 (GALILEO 28)   
1 49810U 21116B   26191.27355816 -.00000080  00000+0  00000+0 0  9996
2 49810  57.1533 341.0513 0001790 180.2049 180.8962  1.70475962 28607
